YAOGAN-36 03A           
1 54372U 22160A   25219.28488948  .00010705  00000+0  42563-3 0  9997
2 54372  34.9942 156.7586 0004165 294.1847  65.8432 15.24507098150121
YAOGAN-36 03B           
1 54374U 22160C   25219.54520674  .00005274  00000+0  27340-3 0  9992
2 54374  34.9924 164.6912 0010966 230.1819 129.7929 15.15502983150027
YAOGAN-36 03C           
1 54376U 22160E   25219.28830421  .00011093  00000+0  46247-3 0  9992
2 54376  35.0081 153.4152 0011377  60.9812 299.2041 15.22860829150163
COSMOS 2564 [GLONASS-M] 
1 54377U 22161A   25218.83698003  .00000079  00000+0  00000+0 0  9997
2 54377  64.7412 203.1445 0011763 224.8660 135.0425  2.13102060 20936
COSMOS 2565             
1 54381U 22163A   25219.64490734 -.00000058  00000+0  12239-4 0  9995
2 54381  67.1479 149.2912 0006457 264.3588  95.6760 13.96675920136981
COSMOS 2566             
1 54383U 22163C   25217.80109296 -.00000011  00000+0  45612-4 0  9993
2 54383  67.1420 150.1085 0012908 300.0531  59.9273 13.97642791136494
JIAOTONG VDES           
1 54588U 22164A   25219.61612182  .00000329  00000+0  10461-3 0  9999
2 54588  98.2668 242.1228 0009476 194.2473 165.8454 14.45788284140760
GAOFEN-5 01A            
1 54640U 22165A   25219.62939687  .00000416  00000+0  10126-3 0  9997
2 54640  98.2024 155.7311 0001619  98.6397 261.4985 14.57664802141732
ONEWEB-0527             
1 54642U 22166A   25219.48548520  .00000037  00000+0  58544-4 0  9992
2 54642  87.9269 306.5913 0001918  97.3666 262.7686 13.21827644130095
ONEWEB-0528             
1 54643U 22166B   25219.26471028  .00000172  00000+0  38548-3 0  9998
2 54643  87.9272 306.6366 0001988  95.7620 264.3740 13.21827427130078
ONEWEB-0539             
1 54644U 22166C   25219.60374984  .00000057  00000+0  10675-3 0  9993
2 54644  87.9261 306.5406 0002198 100.2791 259.8591 13.21824288130116
ONEWEB-0540             
1 54645U 22166D   25219.61021767  .00000013  00000+0  24758-6 0  9995
2 54645  87.9268 306.5736 0002204 100.2147 259.9235 13.21826750130104
ONEWEB-0542             
1 54646U 22166E   25219.53753772  .00000045  00000+0  77046-4 0  9996
2 54646  87.9260 306.5514 0002291 105.4086 254.7302 13.21826947130102
ONEWEB-0545             
1 54647U 22166F   25219.50441767  .00000061  00000+0  11558-3 0  9995
2 54647  87.9266 306.5745 0002547 102.6348 257.5071 13.21826878130061
ONEWEB-0580             
1 54648U 22166G   25219.47761404  .00000006  00000+0 -16779-4 0  9996
2 54648  87.9268 306.5776 0002265 107.1876 252.9506 13.21825765130102
ONEWEB-0582             
1 54649U 22166H   25219.52018339 -.00000014  00000+0 -66331-4 0  9994
2 54649  87.9260 306.5664 0002388 108.8777 251.2616 13.21826484130085
ONEWEB-0583             
1 54650U 22166J   25219.60693545 -.00000031  00000+0 -10698-3 0  9996
2 54650  87.9268 306.5711 0002119  98.9393 261.1981 13.21825827130101
ONEWEB-0584             
1 54651U 22166K   25219.47602995  .00000001  00000+0 -28936-4 0  9992
2 54651  87.9268 306.5814 0002228 109.0489 251.0886 13.21826652130072
ONEWEB-0585             
1 54652U 22166L   25219.57695602  .00000046  00000+0  79952-4 0  9993
2 54652  87.9266 306.5475 0001882  96.8336 263.3012 13.21824682130093
ONEWEB-0586             
1 54653U 22166M   25219.51388573  .00000100  00000+0  20994-3 0  9996
2 54653  87.9269 306.5842 0002180 101.2935 258.8444 13.21826060130082
ONEWEB-0587             
1 54654U 22166N   25219.59901732  .00000063  00000+0  12212-3 0  9995
2 54654  87.9268 306.5150 0001806  95.5881 264.5459 13.21828353130259
ONEWEB-0589             
1 54655U 22166P   25219.58642343  .00000063  00000+0  12178-3 0  9996
2 54655  87.9268 306.5618 0002562 116.0042 244.1356 13.21826519130114
ONEWEB-0590             
1 54656U 22166Q   25219.60991081  .00000006  00000+0 -17915-4 0  9999
2 54656  87.9265 306.5345 0001695 109.4152 250.7165 13.21828320130105
ONEWEB-0591             
1 54657U 22166R   25219.24420960  .00000016  00000+0  76886-5 0  9996
2 54657  87.9266 306.6306 0002065 103.1873 256.9492 13.21826568130088
ONEWEB-0592             
1 54658U 22166S   25219.47445523  .00000025  00000+0  28547-4 0  9994
2 54658  87.9274 306.5369 0002032 103.5605 256.5755 13.21826086129998
ONEWEB-0593             
1 54659U 22166T   25219.49810942  .00000118  00000+0  25430-3 0  9998
2 54659  87.9266 306.5699 0002134 103.4461 256.6911 13.21826636130109
ONEWEB-0594             
1 54660U 22166U   25219.51703471  .00000026  00000+0  30490-4 0  9992
2 54660  87.9269 306.5815 0002034  96.9564 263.1801 13.21826046130121
ONEWEB-0595             
1 54661U 22166V   25219.49494985  .00000076  00000+0  15179-3 0  9998
2 54661  87.9268 306.5621 0001829  96.6622 263.4720 13.21826131130093
ONEWEB-0596             
1 54662U 22166W   25219.54383858 -.00000001  00000+0 -34606-4 0  9998
2 54662  87.9268 306.5670 0001948 100.5727 259.5627 13.21825969130103
ONEWEB-0597             
1 54663U 22166X   25219.60062344  .00000049  00000+0  87128-4 0  9997
2 54663  87.9270 306.5591 0002122 102.4348 257.7024 13.21826257130117
ONEWEB-0600             
1 54664U 22166Y   25219.50757502  .00000105  00000+0  22191-3 0  9995
2 54664  87.9262 306.5734 0002173  98.9026 261.2354 13.21826507130075
ONEWEB-0601             
1 54665U 22166Z   25219.49967573  .00000099  00000+0  20777-3 0  9995
2 54665  87.9266 306.5899 0002237 107.1250 253.0129 13.21827426130266
ONEWEB-0602             
1 54666U 22166AA  25219.31358729 -.00000084  00000+0 -23476-3 0  9999
2 54666  87.9271 306.6278 0002256 100.4704 259.6685 13.21827290130084
ONEWEB-0603             
1 54667U 22166AB  25219.46971404 -.00000044  00000+0 -13744-3 0  9990
2 54667  87.9264 306.5331 0002230 103.5822 256.5560 13.21827502130032
ONEWEB-0604             
1 54668U 22166AC  25219.60850868 -.00000090  00000+0 -24967-3 0  9997
2 54668  87.9270 306.5281 0002231 100.4950 259.6435 13.21826632130019
ONEWEB-0605             
1 54669U 22166AD  25219.52647834 -.00000305  00000+0 -76941-3 0  9994
2 54669  87.9267 306.5751 0002060 118.2609 241.8733 13.21828617130071
ONEWEB-0606             
1 54670U 22166AE  25219.32149092  .00000037  00000+0  57155-4 0  9994
2 54670  87.9269 306.6270 0001882  96.3225 263.8124 13.21826523130109
ONEWEB-0607             
1 54671U 22166AF  25219.51547485 -.00000006  00000+0 -45803-4 0  9999
2 54671  87.9267 306.5527 0002147 102.0286 258.1089 13.21824374130108
ONEWEB-0608             
1 54672U 22166AG  25219.52174888  .00000022  00000+0  21708-4 0  9998
2 54672  87.9261 306.5373 0002387 109.9459 250.1932 13.21827909130113
ONEWEB-0610             
1 54673U 22166AH  25219.57849994 -.00000646  00000+0 -15948-2 0  9992
2 54673  87.9267 306.5604 0002453 111.1801 248.9596 13.21825880130024
ONEWEB-0611             
1 54674U 22166AJ  25219.49652416  .00000088  00000+0  18239-3 0  9990
2 54674  87.9267 306.5734 0001929  92.6714 267.4640 13.21827079130008
ONEWEB-0612             
1 54675U 22166AK  25219.50915245  .00000036  00000+0  55219-4 0  9998
2 54675  87.9269 306.5483 0002152 103.5115 256.6259 13.21825628129998
ONEWEB-0615             
1 54676U 22166AL  25219.49021568  .00000136  00000+0  29817-3 0  9998
2 54676  87.9270 306.5784 0002010  98.0492 262.0870 13.21827966130005
ONEWEB-0655             
1 54677U 22166AM  25219.53911427 -.00000064  00000+0 -18618-3 0  9995
2 54677  87.9268 306.5738 0002320  97.0878 263.0520 13.21824440130000
ONEWEB-0659             
1 54678U 22166AN  25219.48076165  .00000035  00000+0  52317-4 0  9992
2 54678  87.9266 306.5862 0001861  98.7733 261.3611 13.21826088130084
ONEWEB-0685             
1 54679U 22166AP  25219.48235027  .00000064  00000+0  12448-3 0  9999
2 54679  87.9268 306.5812 0002202 104.6548 255.4831 13.21826138129973
ONEWEB-0712             
1 54680U 22166AQ  25219.57255229  .00000101  00000+0  23081-3 0  9994
2 54680  87.9043 291.2762 0002529  90.1734 269.9686 13.16592565130796
ONEWEB-0714             
1 54681U 22166AR  25219.56434050  .00000089  00000+0  18500-3 0  9990
2 54681  87.9269 306.5582 0002231 101.3283 258.8102 13.21827048130109
DONGPO 09               
1 54685U 22167D   25219.67644785  .00009765  00000+0  37087-3 0  9996
2 54685  97.6630  14.3772 0004016 136.5370 223.6185 15.27029240147451
DONGPO 08               
1 54686U 22167E   25219.65237962  .00009304  00000+0  37361-3 0  9994
2 54686  97.6576  12.8299 0009758 184.9387 175.1756 15.25150240147392
2022-167F               
1 54687U 22167F   25219.59509075  .00022346  00000+0  47231-3 0  9993
2 54687  97.6213  18.3308 0005123 107.5524 252.6284 15.45168098147860
DONGPO 10               
1 54689U 22167H   25219.67612175  .00009030  00000+0  35572-3 0  9990
2 54689  97.6665  14.0934 0006874 133.5589 226.6220 15.25823386147413
JILIN-1 GAOFEN 03D50    
1 54690U 22167J   25219.66092355  .00009357  00000+0  36972-3 0  9990
2 54690  97.6538  12.3107 0007516 128.1833 232.0082 15.25706569147402
JIAOTONG 5 (HEAD-2H)    
1 54691U 22167K   25219.59499047  .00024518  00000+0  54718-3 0  9996
2 54691  97.6280  23.0261 0005498  70.0650 290.1189 15.43535034148126
JILIN-1 GAOFEN 03D47    
1 54692U 22167L   25219.67474058  .00008762  00000+0  35002-3 0  9999
2 54692  97.6647  13.8720 0009965 139.0688 221.1300 15.25340051147414
JILIN-1 GAOFEN 03D49    
1 54694U 22167N   25219.64334344  .00010771  00000+0  40047-3 0  9999
2 54694  97.6533  13.4243 0007354 157.2668 202.8898 15.27688895147462
JILIN-1 GAOFEN 03D48    
1 54695U 22167P   25219.59845847  .00009415  00000+0  36594-3 0  9994
2 54695  97.6595  13.3898 0008490 140.2482 219.9379 15.26246462147411
SHIYAN-20A (SY-20A)     
1 54699U 22169A   25219.59964124 -.00000017  00000+0  46756-4 0  9992
2 54699  59.9954 196.6993 0010748  23.7533 336.3996 14.29399600138523
SHIYAN-20B (SY-20B)     
1 54700U 22169B   25219.60442454 -.00000001  00000+0  52857-4 0  9996
2 54700  59.9955 196.7552 0015888  10.8152 349.3222 14.29374340138523
